*******************************************************************************Ephemeris / WWW_USER Sun Apr 23 09:14:48 2017 Pasadena, USA      / Horizons    *******************************************************************************Target body name: Moon (301)                      {source: DE431mx}Center body name: Earth (399)                     {source: DE431mx}Center-site name: Kitt Peak*******************************************************************************Start time      : A.D. 2020-Jan-01 00:00:00.0000 UT      Stop  time      : A.D. 2020-Jan-08 00:00:00.0000 UT      Step-size       : 60 minutes*******************************************************************************Target pole/equ : IAU_MOON                        {East-longitude +}Target radii    : 1737.4 x 1737.4 x 1737.4 km     {Equator, meridian, pole}    Center geodetic : 248.405300,31.9584502,2.0709438 {E-lon(deg),Lat(deg),Alt(km)}Center cylindric: 248.405300,5418.25536,3357.6195 {E-lon(deg),Dxy(km),Dz(km)}Center pole/equ : High-precision EOP model        {East-longitude +}Center radii    : 6378.1 x 6378.1 x 6356.8 km     {Equator, meridian, pole}    Target primary  : EarthVis. interferer : MOON (R_eq= 1737.400) km        {source: DE431mx}Rel. light bend : Sun, EARTH                      {source: DE431mx}Rel. lght bnd GM: 1.3271E+11, 3.9860E+05 km^3/s^2                              Atmos refraction: NO (AIRLESS)RA format       : DEGTime format     : BOTHEOP file        : eop.170421.p170713                                           EOP coverage    : DATA-BASED 1962-JAN-20 TO 2017-APR-21. PREDICTS-> 2017-JUL-12Units conversion: 1 au= 149597870.700 km, c= 299792.458 km/s, 1 day= 86400.0 s Table cut-offs 1: Elevation (-90.0deg=NO ),Airmass (>38.000=NO), Daylight (NO )Table cut-offs 2: Solar Elongation (  0.0,180.0=NO ),Local Hour Angle( 0.0=NO )Table format    : Comma Separated Values (spreadsheet)************************************************************************************************************************************* Date__(UT)__HR:MN, Date_________JDUT, , ,R.A._(ICRF/J2000.0), DEC_(ICRF/J2000.0), Azi_(a-app), Elev_(a-app), L_Ap_Sid_Time,   Illu%,*************************************************************************************************************************************$$SOE 2020-Jan-01 00:00, 2458849.500000000,*,m,348.92361,-10.69045, 179.0504, 47.4527, 23.2349526385,  29.790, 2020-Jan-01 01:00, 2458849.541666667,N,m,349.19298,-10.50591, 200.0321, 45.5401,  0.2376905192,  30.007, 2020-Jan-01 02:00, 2458849.583333333, ,m,349.47468,-10.31223, 218.0863, 39.5974,  1.2404283992,  30.236, 2020-Jan-01 03:00, 2458849.625000000, ,m,349.78104,-10.11077, 232.3122, 30.8630,  2.2431662785,  30.486, 2020-Jan-01 04:00, 2458849.666666667, ,m,350.12254, -9.90337, 243.4851, 20.4326,  3.2459041572,  30.765, 2020-Jan-01 05:00, 2458849.708333333, ,m,350.50708, -9.69215, 252.6730,  9.0260,  4.2486420354,  31.078, 2020-Jan-01 06:00, 2458849.750000000, , ,350.93953, -9.47933, 260.7674, -2.9133,  5.2513799128,  31.428, 2020-Jan-01 07:00, 2458849.791666667, , ,351.42148, -9.26706, 268.5049,-15.0924,  6.2541177897,  31.816, 2020-Jan-01 08:00, 2458849.833333333, , ,351.95130, -9.05729, 276.6235,-27.2745,  7.2568556661,  32.241, 2020-Jan-01 09:00, 2458849.875000000, , ,352.52435, -8.85166, 286.1087,-39.1913,  8.2595935418,  32.698, 2020-Jan-01 10:00, 2458849.916666667, , ,353.13339, -8.65140, 298.6454,-50.3990,  9.2623314169,  33.184, 2020-Jan-01 11:00, 2458849.958333333, , ,353.76906, -8.45731, 317.3977,-59.9342, 10.2650692916,  33.689, 2020-Jan-01 12:00, 2458850.000000000, , ,354.42051, -8.26974, 346.3262,-65.6295, 11.2678071658,  34.207, 2020-Jan-01 13:00, 2458850.041666667,A, ,355.07599, -8.08862,  20.5812,-64.6846, 12.2705450394,  34.728, 2020-Jan-01 14:00, 2458850.083333333,C, ,355.72351, -7.91347,  46.6698,-57.6635, 13.2732829126,  35.243, 2020-Jan-01 15:00, 2458850.125000000,*, ,356.35151, -7.74343,  63.3343,-47.4877, 14.2760207853,  35.743, 2020-Jan-01 16:00, 2458850.166666667,*, ,356.94947, -7.57737,  74.7499,-35.9405, 15.2787586576,  36.221, 2020-Jan-01 17:00, 2458850.208333333,*, ,357.50859, -7.41390,  83.6142,-23.7894, 16.2814965295,  36.669, 2020-Jan-01 18:00, 2458850.250000000,*, ,358.02226, -7.25150,  91.3592,-11.4000, 17.2842344009,  37.083, 2020-Jan-01 19:00, 2458850.291666667,*,m,358.48663, -7.08857,  98.8643,  0.9952, 18.2869722719,  37.459, 2020-Jan-01 20:00, 2458850.333333333,*,m,358.90089, -6.92356, 106.8420, 13.1790, 19.2897101425,  37.798, 2020-Jan-01 21:00, 2458850.375000000,*,m,359.26749, -6.75507, 116.0730, 24.8671, 20.2924480128,  38.102, 2020-Jan-01 22:00, 2458850.416666667,*,m,359.59206, -6.58194, 127.5992, 35.6035, 21.2951858828,  38.375, 2020-Jan-01 23:00, 2458850.458333333,*,m,359.88317, -6.40334, 142.8032, 44.5940, 22.2979237524,  38.624, 2020-Jan-02 00:00, 2458850.500000000,*,m,  0.15176, -6.21885, 162.8032, 50.5402, 23.3006616218,  38.858, 2020-Jan-02 01:00, 2458850.541666667,N,m,  0.41039, -6.02847, 186.2835, 51.9405,  0.3033994909,  39.086, 2020-Jan-02 02:00, 2458850.583333333,A,m,  0.67233, -5.83262, 208.6245, 48.3305,  1.3061373596,  39.319, 2020-Jan-02 03:00, 2458850.625000000, ,m,  0.95059, -5.63208, 226.4480, 40.8301,  2.3088752281,  39.567, 2020-Jan-02 04:00, 2458850.666666667, ,m,  1.25693, -5.42792, 239.8933, 30.9554,  3.3116130964,  39.838, 2020-Jan-02 05:00, 2458850.708333333, ,m,  1.60103, -5.22137, 250.3743, 19.7716,  4.3143509645,  40.140, 2020-Jan-02 06:00, 2458850.750000000, ,m,  1.98989, -5.01373, 259.1441,  7.9019,  5.3170888324,  40.479, 2020-Jan-02 07:00, 2458850.791666667, , ,  2.42738, -4.80624, 267.1272, -4.2793,  6.3198267001,  40.856, 2020-Jan-02 08:00, 2458850.833333333, , ,  2.91414, -4.60000, 275.0836,-16.5071,  7.3225645676,  41.272, 2020-Jan-02 09:00, 2458850.875000000, , ,  3.44764, -4.39590, 283.8188,-28.5297,  8.3253024351,  41.726, 2020-Jan-02 10:00, 2458850.916666667, , ,  4.02248, -4.19457, 294.4513,-40.0045,  9.3280403024,  42.212, 2020-Jan-02 11:00, 2458850.958333333, , ,  4.63080, -3.99638, 308.8042,-50.3140, 10.3307781695,  42.725, 2020-Jan-02 12:00, 2458851.000000000, , ,  5.26280, -3.80144, 329.5700,-58.2040, 11.3335160366,  43.256, 2020-Jan-02 13:00, 2458851.041666667,A, ,  5.90738, -3.60960, 357.6667,-61.5239, 12.3362539036,  43.797, 2020-Jan-02 14:00, 2458851.083333333,N, ,  6.55272, -3.42050,  26.2409,-58.7537, 13.3389917706,  44.339, 2020-Jan-02 15:00, 2458851.125000000,*, ,  7.18696, -3.23362,  47.7301,-51.1712, 14.3417296376,  44.871, 2020-Jan-02 16:00, 2458851.166666667,*, ,  7.79886, -3.04829,  62.5052,-40.9705, 15.3444675045,  45.386, 2020-Jan-02 17:00, 2458851.208333333,*, ,  8.37839, -2.86379,  73.2821,-29.4867, 16.3472053715,  45.876, 2020-Jan-02 18:00, 2458851.250000000,*, ,  8.91740, -2.67938,  81.9668,-17.3716, 17.3499432384,  46.333, 2020-Jan-02 19:00, 2458851.291666667,*, ,  9.41011, -2.49436,  89.7143, -4.9711, 18.3526811054,  46.754, 2020-Jan-02 20:00, 2458851.333333333,*,m,  9.85354, -2.30810,  97.3294,  7.4807, 19.3554189725,  47.136, 2020-Jan-02 21:00, 2458851.375000000,*,m, 10.24788, -2.12012, 105.5500, 19.7579, 20.3581568397,  47.479, 2020-Jan-02 22:00, 2458851.416666667,*,m, 10.59654, -1.93011, 115.2849, 31.5541, 21.3608947069,  47.786, 2020-Jan-02 23:00, 2458851.458333333,*,m, 10.90606, -1.73795, 127.8802, 42.3475, 22.3636325743,  48.063, 2020-Jan-03 00:00, 2458851.500000000,*,m, 11.18575, -1.54375, 145.2712, 51.1567, 23.3663704418,  48.317, 2020-Jan-03 01:00, 2458851.541666667,C,m, 11.44711, -1.34778, 168.8503, 56.2910,  0.3691083095,  48.556, 2020-Jan-03 02:00, 2458851.583333333,A,m, 11.70298, -1.15046, 195.5507, 56.0022,  1.3718461773,  48.792, 2020-Jan-03 03:00, 2458851.625000000, ,m, 11.96662, -0.95233, 218.5555, 50.4214,  2.3745840453,  49.034, 2020-Jan-03 04:00, 2458851.666666667, ,m, 12.25073, -0.75396, 235.4260, 41.3848,  3.3773219136,  49.293, 2020-Jan-03 05:00, 2458851.708333333, ,m, 12.56650, -0.55588, 247.7595, 30.5187,  4.3800597821,  49.577, 2020-Jan-03 06:00, 2458851.750000000, ,m, 12.92284, -0.35856, 257.4525, 18.7494,  5.3827976508,  49.894, 2020-Jan-03 07:00, 2458851.791666667, ,m, 13.32582, -0.16231, 265.8076,  6.5778,  6.3855355198,  50.247, 2020-Jan-03 08:00, 2458851.833333333, , , 13.77835,  0.03271, 273.7257, -5.6863,  7.3882733891,  50.641, 2020-Jan-03 09:00, 2458851.875000000, , , 14.28008,  0.22651, 281.9691,-17.7925,  8.3910112587,  51.073, 2020-Jan-03 10:00, 2458851.916666667, , , 14.82759,  0.41925, 291.3898,-29.4552,  9.3937491286,  51.541, 2020-Jan-03 11:00, 2458851.958333333, , , 15.41466,  0.61124, 303.1723,-40.2351, 10.3964869989,  52.041, 2020-Jan-03 12:00, 2458852.000000000, , , 16.03280,  0.80291, 319.0239,-49.3400, 11.3992248695,  52.565, 2020-Jan-03 13:00, 2458852.041666667, , , 16.67174,  0.99475, 340.5765,-55.3693, 12.4019627405,  53.106, 2020-Jan-03 14:00, 2458852.083333333,N, , 17.32009,  1.18725,   6.3579,-56.5856, 13.4047006119,  53.655, 2020-Jan-03 15:00, 2458852.125000000,*, , 17.96592,  1.38091,  30.3029,-52.5058, 14.4074384837,  54.201, 2020-Jan-03 16:00, 2458852.166666667,*, , 18.59747,  1.57613,  48.5304,-44.5327, 15.4101763560,  54.736, 2020-Jan-03 17:00, 2458852.208333333,*, , 19.20377,  1.77320,  61.7941,-34.3220, 16.4129142287,  55.250, 2020-Jan-03 18:00, 2458852.250000000,*, , 19.77527,  1.97226,  71.9442,-22.9069, 17.4156521019,  55.737, 2020-Jan-03 19:00, 2458852.291666667,*, , 20.30446,  2.17328,  80.3776,-10.8441, 18.4183899755,  56.190, 2020-Jan-03 20:00, 2458852.333333333,*,m, 20.78633,  2.37600,  88.0432,  1.5452, 19.4211278497,  56.606, 2020-Jan-03 21:00, 2458852.375000000,*,m, 21.21883,  2.57997,  95.6859, 14.0317, 20.4238657244,  56.982, 2020-Jan-03 22:00, 2458852.416666667,*,m, 21.60311,  2.78456, 104.0795, 26.3870, 21.4266035997,  57.319, 2020-Jan-03 23:00, 2458852.458333333,*,m, 21.94357,  2.98898, 114.3008, 38.2874, 22.4293414755,  57.621, 2020-Jan-04 00:00, 2458852.500000000,*,m, 22.24766,  3.19235, 128.1466, 49.1379, 23.4320793519,  57.894, 2020-Jan-04 01:00, 2458852.541666667,C,m, 22.52549,  3.39378, 148.4686, 57.6985,  0.4348172289,  58.144, 2020-Jan-04 02:00, 2458852.583333333,A,m, 22.78910,  3.59246, 176.8797, 61.7003,  1.4375551065,  58.382, 2020-Jan-04 03:00, 2458852.625000000, ,m, 23.05167,  3.78774, 206.6917, 59.2805,  2.4402929848,  58.618, 2020-Jan-04 04:00, 2458852.666666667, ,m, 23.32646,  3.97919, 229.1653, 51.6691,  3.4430308636,  58.862, 2020-Jan-04 05:00, 2458852.708333333, ,m, 23.62590,  4.16667, 244.4353, 41.3101,  4.4457687432,  59.124, 2020-Jan-04 06:00, 2458852.750000000, ,m, 23.96066,  4.35035, 255.4907, 29.6981,  5.4485066235,  59.412, 2020-Jan-04 07:00, 2458852.791666667, ,m, 24.33890,  4.53072, 264.4006, 17.5553,  6.4512445044,  59.733, 2020-Jan-04 08:00, 2458852.833333333, ,m, 24.76581,  4.70852, 272.3910,  5.2644,  7.4539823862,  60.091, 2020-Jan-04 09:00, 2458852.875000000, , , 25.24333,  4.88470, 280.2984, -6.9130,  8.4567202686,  60.488, 2020-Jan-04 10:00, 2458852.916666667, , , 25.77017,  5.06038, 288.8667,-18.7249,  9.4594581517,  60.923, 2020-Jan-04 11:00, 2458852.958333333, , , 26.34202,  5.23672, 298.9572,-29.8374, 10.4621960356,  61.392, 2020-Jan-04 12:00, 2458853.000000000, , , 26.95186,  5.41489, 311.7089,-39.7124, 11.4649339204,  61.890, 2020-Jan-04 13:00, 2458853.041666667, , , 27.59054,  5.59597, 328.4508,-47.4377, 12.4676718059,  62.410, 2020-Jan-04 14:00, 2458853.083333333,N, , 28.24731,  5.78088, 349.6200,-51.6682, 13.4704096923,  62.944, 2020-Jan-04 15:00, 2458853.125000000,*, , 28.91043,  5.97034,  12.6518,-51.2318, 14.4731475795,  63.482, 2020-Jan-04 16:00, 2458853.166666667,*, , 29.56785,  6.16477,  33.0823,-46.2633, 15.4758854676,  64.016, 2020-Jan-04 17:00, 2458853.208333333,*, , 30.20786,  6.36432,  48.9607,-38.0460, 16.4786233565,  64.536, 2020-Jan-04 18:00, 2458853.250000000,*, , 30.81971,  6.56876,  61.0243,-27.8601, 17.4813612463,  65.035, 2020-Jan-04 19:00, 2458853.291666667,*, , 31.39429,  6.77751,  70.5934,-16.5331, 18.4840991370,  65.504, 2020-Jan-04 20:00, 2458853.333333333,*, , 31.92466,  6.98963,  78.7330, -4.5458, 19.4868370286,  65.939, 2020-Jan-04 21:00, 2458853.375000000,*,m, 32.40657,  7.20383,  86.2410,  7.8058, 20.4895749212,  66.336, 2020-Jan-04 22:00, 2458853.416666667,*,m, 32.83884,  7.41856,  93.8154, 20.3023, 21.4923128147,  66.694, 2020-Jan-04 23:00, 2458853.458333333,*,m, 33.22357,  7.63208, 102.2715, 32.7201, 22.4950507091,  67.015, 2020-Jan-05 00:00, 2458853.500000000,*,m, 33.56611,  7.84255, 112.8921, 44.7289, 23.4977886046,  67.302, 2020-Jan-05 01:00, 2458853.541666667,C,m, 33.87484,  8.04824, 128.1286, 55.6623,  0.5005265011,  67.561, 2020-Jan-05 02:00, 2458853.583333333,A,m, 34.16063,  8.24762, 152.4007, 63.9296,  1.5032643985,  67.801, 2020-Jan-05 03:00, 2458853.625000000, ,m, 34.43614,  8.43953, 187.1601, 66.4179,  2.5060022970,  68.029, 2020-Jan-05 04:00, 2458853.666666667, ,m, 34.71485,  8.62331, 219.0088, 61.5624,  3.5087401965,  68.257, 2020-Jan-05 05:00, 2458853.708333333, ,m, 35.01010,  8.79884, 239.6093, 52.1437,  4.5114780970,  68.495, 2020-Jan-05 06:00, 2458853.750000000, ,m, 35.33410,  8.96659, 252.9307, 40.8061,  5.5142159987,  68.751, 2020-Jan-05 07:00, 2458853.791666667, ,m, 35.69702,  9.12759, 262.7237, 28.7262,  6.5169539014,  69.033, 2020-Jan-05 08:00, 2458853.833333333, ,m, 36.10637,  9.28332, 270.9300, 16.4209,  7.5196918052,  69.348, 2020-Jan-05 09:00, 2458853.875000000, ,m, 36.56650,  9.43563, 278.6226,  4.1809,  8.5224297101,  69.698, 2020-Jan-05 10:00, 2458853.916666667, , , 37.07848,  9.58657, 286.5535, -7.7605,  9.5251676161,  70.084, 2020-Jan-05 11:00, 2458853.958333333, , , 37.64010,  9.73827, 295.4277,-19.1372, 10.5279055232,  70.506, 2020-Jan-05 12:00, 2458854.000000000, , , 38.24617,  9.89279, 306.0652,-29.5647, 11.5306434315,  70.959, 2020-Jan-05 13:00, 2458854.041666667, , , 38.88894, 10.05202, 319.4491,-38.4307, 12.5333813410,  71.438, 2020-Jan-05 14:00, 2458854.083333333,N, , 39.55860, 10.21754, 336.4002,-44.7920, 13.5361192516,  71.935, 2020-Jan-05 15:00, 2458854.125000000,*, , 40.24388, 10.39056, 356.4633,-47.5039, 14.5388571634,  72.443, 2020-Jan-05 16:00, 2458854.166666667,*, , 40.93270, 10.57183,  16.9584,-45.8860, 15.5415950764,  72.953, 2020-Jan-05 17:00, 2458854.208333333,*, , 41.61284, 10.76161,  34.8011,-40.3578, 16.5443329905,  73.455, 2020-Jan-05 18:00, 2458854.250000000,*, , 42.27256, 10.95960,  48.9703,-32.0255, 17.5470709059,  73.942, 2020-Jan-05 19:00, 2458854.291666667,*, , 42.90130, 11.16498,  60.0874,-21.9116, 18.5498088225,  74.406, 2020-Jan-05 20:00, 2458854.333333333,*, , 43.49029, 11.37635,  69.1365,-10.7024, 19.5525467403,  74.841, 2020-Jan-05 21:00, 2458854.375000000,*,m, 44.03310, 11.59182,  76.9602,  1.1793, 20.5552846594,  75.241, 2020-Jan-05 22:00, 2458854.416666667,*,m, 44.52617, 11.80906,  84.2430, 13.4612, 21.5580225797,  75.605, 2020-Jan-05 23:00, 2458854.458333333,*,m, 44.96912, 12.02544,  91.6406, 25.9373, 22.5607605013,  75.933, 2020-Jan-06 00:00, 2458854.500000000,*,m, 45.36492, 12.23818, 100.0004, 38.3974, 23.5634984242,  76.225, 2020-Jan-06 01:00, 2458854.541666667,C,m, 45.71984, 12.44456, 110.8221, 50.5210,  0.5662363484,  76.486, 2020-Jan-06 02:00, 2458854.583333333,A,m, 46.04312, 12.64210, 127.4442, 61.5917,  1.5689742738,  76.722, 2020-Jan-06 03:00, 2458854.625000000, ,m, 46.34641, 12.82885, 157.0020, 69.5658,  2.5717122005,  76.941, 2020-Jan-06 04:00, 2458854.666666667, ,m, 46.64294, 13.00348, 199.5479, 70.1451,  3.5744501286,  77.152, 2020-Jan-06 05:00, 2458854.708333333, ,m, 46.94656, 13.16549, 231.2754, 62.8701,  4.5771880579,  77.363, 2020-Jan-06 06:00, 2458854.750000000, ,m, 47.27071, 13.31523, 249.0882, 52.0929,  5.5799259886,  77.585, 2020-Jan-06 07:00, 2458854.791666667, ,m, 47.62744, 13.45390, 260.4718, 40.1470,  6.5826639206,  77.824, 2020-Jan-06 08:00, 2458854.833333333, ,m, 48.02654, 13.58342, 269.1481, 27.8485,  7.5854018540,  78.089, 2020-Jan-06 09:00, 2458854.875000000, ,m, 48.47492, 13.70628, 276.7624, 15.5539,  8.5881397886,  78.384, 2020-Jan-06 10:00, 2458854.916666667, ,m, 48.97622, 13.82539, 284.2137,  3.4927,  9.5908777246,  78.711, 2020-Jan-06 11:00, 2458854.958333333, , , 49.53070, 13.94380, 292.1642, -8.1135, 10.5936156619,  79.071, 2020-Jan-06 12:00, 2458855.000000000, , , 50.13534, 14.06453, 301.2618,-18.9802, 11.5963536007,  79.462, 2020-Jan-06 13:00, 2458855.041666667, , , 50.78415, 14.19040, 312.2421,-28.6843, 12.5990915407,  79.879, 2020-Jan-06 14:00, 2458855.083333333,N, , 51.46867, 14.32385, 325.8719,-36.5792, 13.6018294822,  80.318, 2020-Jan-06 15:00, 2458855.125000000,*, , 52.17845, 14.46680, 342.5112,-41.7692, 14.6045674250,  80.771, 2020-Jan-06 16:00, 2458855.166666667,*, , 52.90174, 14.62062,   1.2359,-43.3464, 15.6073053692,  81.230, 2020-Jan-06 17:00, 2458855.208333333,*, , 53.62608, 14.78597,  19.6690,-40.9628, 16.6100433148,  81.688, 2020-Jan-06 18:00, 2458855.250000000,*, , 54.33903, 14.96281,  35.6490,-35.1306, 17.6127812617,  82.136, 2020-Jan-06 19:00, 2458855.291666667,*, , 55.02879, 15.15038,  48.5821,-26.7942, 18.6155192100,  82.568, 2020-Jan-06 20:00, 2458855.333333333,*, , 55.68489, 15.34716,  58.9679,-16.8021, 19.6182571597,  82.976, 2020-Jan-06 21:00, 2458855.375000000,*, , 56.29882, 15.55096,  67.5706, -5.7439, 20.6209951107,  83.356, 2020-Jan-06 22:00, 2458855.416666667,*,m, 56.86457, 15.75895,  75.0791,  6.0007, 21.6237330632,  83.705, 2020-Jan-06 23:00, 2458855.458333333,*,m, 57.37913, 15.96785,  82.0886, 18.1790, 22.6264710170,  84.020, 2020-Jan-07 00:00, 2458855.500000000,*,m, 57.84281, 16.17404,  89.2079, 30.5999, 23.6292089723,  84.301, 2020-Jan-07 01:00, 2458855.541666667,C,m, 58.25934, 16.37387,  97.2866, 43.0726,  0.6319469289,  84.552, 2020-Jan-07 02:00, 2458855.583333333,A,m, 58.63583, 16.56385, 107.9911, 55.3060,  1.6346848869,  84.775, 2020-Jan-07 03:00, 2458855.625000000, ,m, 58.98230, 16.74099, 125.6882, 66.5816,  2.6374228463,  84.978, 2020-Jan-07 04:00, 2458855.666666667, ,m, 59.31111, 16.90305, 162.0409, 74.3329,  3.6401608070,  85.166, 2020-Jan-07 05:00, 2458855.708333333, ,m, 59.63605, 17.04870, 212.9398, 72.7336,  4.6428987692,  85.349, 2020-Jan-07 06:00, 2458855.750000000, ,m, 59.97135, 17.17772, 242.1208, 63.4593,  5.6456367327,  85.533, 2020-Jan-07 07:00, 2458855.791666667, ,m, 60.33062, 17.29101, 256.9920, 51.8323,  6.6483746976,  85.727, 2020-Jan-07 08:00, 2458855.833333333, ,m, 60.72580, 17.39049, 266.7106, 39.5861,  7.6511126638,  85.939, 2020-Jan-07 09:00, 2458855.875000000, ,m, 61.16641, 17.47894, 274.4775, 27.2494,  8.6538506315,  86.172, 2020-Jan-07 10:00, 2458855.916666667, ,m, 61.65890, 17.55980, 281.6130, 15.0739,  9.6565886005,  86.431, 2020-Jan-07 11:00, 2458855.958333333, ,m, 62.20630, 17.63688, 288.8575,  3.2543, 10.6593265708,  86.717, 2020-Jan-07 12:00, 2458856.000000000, , , 62.80820, 17.71408, 296.7893, -7.9914, 11.6620645425,  87.030, 2020-Jan-07 13:00, 2458856.041666667, , , 63.46088, 17.79517, 305.9898,-18.3639, 12.6648025155,  87.368, 2020-Jan-07 14:00, 2458856.083333333,N, , 64.15767, 17.88352, 317.0928,-27.4201, 13.6675404898,  87.727, 2020-Jan-07 15:00, 2458856.125000000,*, , 64.88947, 17.98197, 330.6599,-34.5158, 14.6702784655,  88.100, 2020-Jan-07 16:00, 2458856.166666667,*, , 65.64525, 18.09269, 346.7360,-38.8376, 15.6730164425,  88.482, 2020-Jan-07 17:00, 2458856.208333333,*, , 66.41280, 18.21704,   4.2375,-39.6731, 16.6757544209,  88.866, 2020-Jan-07 18:00, 2458856.250000000,*, , 67.17930, 18.35553,  21.1445,-36.8605, 17.6784924005,  89.246, 2020-Jan-07 19:00, 2458856.291666667,*, , 67.93204, 18.50780,  35.8397,-30.9168, 18.6812303815,  89.615, 2020-Jan-07 20:00, 2458856.333333333,*, , 68.65913, 18.67259,  47.9147,-22.6615, 19.6839683636,  89.966, 2020-Jan-07 21:00, 2458856.375000000,*, , 69.35010, 18.84774,  57.7682,-12.8286, 20.6867063471,  90.296, 2020-Jan-07 22:00, 2458856.416666667,*, , 69.99658, 19.03035,  66.0187, -1.9439, 21.6894443318,  90.600, 2020-Jan-07 23:00, 2458856.458333333,*,m, 70.59286, 19.21678,  73.2484,  9.6421, 22.6921823178,  90.876, 2020-Jan-08 00:00, 2458856.500000000,*,m, 71.13634, 19.40292,  79.9812, 21.6918, 23.6949203051,  91.124,$$EOE*************************************************************************************************************************************Column meaning: TIME  Prior to 1962, times are UT1. Dates thereafter are UTC. Any 'b' symbol inthe 1st-column denotes a B.C. date. First-column blank (" ") denotes an A.D.date. Calendar dates prior to 1582-Oct-15 are in the Julian calendar system.Later calendar dates are in the Gregorian system.  Time tags refer to the same instant throughout the solar system, regardlessof where the observer is located. For example, if an observation from thesurface of another body has an output time-tag of 12:31:00 UTC, an Earth-basedtime-scale, it refers to the instant on that body simultaneous to 12:31:00 UTCon Earth.  The Barycentric Dynamical Time scale (TDB) is used internally as defined bythe planetary equations of motion. Conversion between TDB and the selectednon-uniform UT output time-scale has not been determined for UTC times afterthe next July or January 1st. The last known leap-second is used as a constantover future intervals.  NOTE: "n.a." in output means quantity "not available" at the print-time. SOLAR PRESENCE (OBSERVING SITE)  Time tag is followed by a blank, then a solar-presence symbol:        '*'  Daylight (refracted solar upper-limb on or above apparent horizon)        'C'  Civil twilight/dawn        'N'  Nautical twilight/dawn        'A'  Astronomical twilight/dawn        ' '  Night OR geocentric ephemerisLUNAR PRESENCE (OBSERVING SITE)  The solar-presence symbol is immediately followed by a lunar-presence symbol:        'm'  Refracted upper-limb of Moon on or above apparent horizon        ' '  Refracted upper-limb of Moon below apparent horizon OR geocentric             ephemeris  R.A._(J2000.0)_DEC. =   J2000.0 astrometric right ascension and declination of target center.Adjusted for light-time. Units: DEGREES  Azi_(a-appr)_Elev =   Airless apparent azimuth and elevation of target center. Adjusted forlight-time, the gravitational deflection of light, stellar aberration,precession and nutation. Azimuth measured North(0) -> East(90) -> South(180) ->West(270) -> North (360). Elevation is with respect to plane perpendicularto local zenith direction.  TOPOCENTRIC ONLY. Units: DEGREES  L_Ap_Sid_Time =   Local Apparent Sidereal Time. The angle measured westward in the bodytrue-equator of-date plane from the meridian containing the body-fixedobserver to the meridian containing the true Earth equinox (defined byintersection of the true Earth equator of date with the ecliptic of date).TOPOCENTRIC ONLY. Units: HH.fffffffffff  (decimal hours)  Illu% =   Fraction of target circular disk illuminated by Sun (phase), as seen byobserver.  Units: PERCENT Computations by ...     Solar System Dynamics Group, Horizons On-Line Ephemeris System     4800 Oak Grove Drive, Jet Propulsion Laboratory     Pasadena, CA  91109   USA     Information: http://ssd.jpl.nasa.gov/     Connect    : telnet://ssd.jpl.nasa.gov:6775  (via browser)                  telnet ssd.jpl.nasa.gov 6775    (via command-line)     Author     : Jon.Giorgini@jpl.nasa.gov*************************************************************************************************************************************